NORAD_CAT_ID,OBJECT_NAME,OBJECT_TYPE,EPOCH,MEAN_MOTION,ECCENTRICITY,INCLINATION,RA_OF_ASC_NODE,ARG_OF_PERICENTER,MEAN_ANOMALY,BSTAR,MEAN_MOTION_DOT,MEAN_MOTION_DDOT,TLE_LINE0,TLE_LINE1,TLE_LINE2,SEMIMAJOR_AXIS,PERIOD,APOGEE,PERIGEE,DECAYED
49160.0,STARLINK-3095,PAYLOAD,2022-02-19 22:00:00,14.98305949,0.0003529,69.9985,62.9663,289.9375,274.9614,0.0050338,0.00060454,0.0,0 STARLINK-3095,1 49160U 21082AG  22050.91667824  .00060454  00000-0  50338-2 0  9995,2 49160  69.9985  62.9663 0003529 289.9375 274.9614 14.98305949 25554,6950.267,96.109,574.585,569.68,0.0
49160.0,STARLINK-3095,PAYLOAD,2022-02-20 14:00:01,14.98338589,0.0003761,69.9987,61.285,294.2279,265.6054,-0.002573,-0.00030668,0.0,0 STARLINK-3095,1 49160U 21082AG  22051.58334491 -.00030668  00000-0 -25730-2 0  9994,2 49160  69.9987  61.2850 0003761 294.2279 265.6054 14.98338589 25658,6950.166,96.106,574.645,569.4169999999998,0.0
49160.0,STARLINK-3095,PAYLOAD,2022-02-20 22:00:00,14.98296039,0.0003664,69.9989,60.4446,289.0588,268.2607,0.0048685,0.00058435,0.0,0 STARLINK-3095,1 49160U 21082AG  22051.91667824  .00058435  00000-0  48685-2 0  9994,2 49160  69.9989  60.4446 0003664 289.0588 268.2607 14.98296039  3572,6950.2980000000025,96.109,574.71,569.616,0.0
49160.0,STARLINK-3095,PAYLOAD,2022-02-21 06:00:00,14.98333022,0.0003778,69.9993,59.6039,291.4412,263.3494,-0.0015107,-0.00018075,0.0,0 STARLINK-3095,1 49160U 21082AG  22052.25001157 -.00018075  00000-0 -15107-2 0  9994,2 49160  69.9993  59.6039 0003778 291.4412 263.3494 14.98333022 25752,6950.184,96.107,574.674,569.423,0.0
49160.0,STARLINK-3095,PAYLOAD,2022-02-21 22:00:00,14.98337091,0.000368,69.9993,57.9228,285.547,264.2894,0.0025316,0.00030251,0.0,0 STARLINK-3095,1 49160U 21082AG  22052.91667824  .00030251  00000-0  25316-2 0  9997,2 49160  69.9993  57.9228 0003680 285.5470 264.2894 14.98337091 25858,6950.170999999999,96.107,574.594,569.4780000000002,0.0
49160.0,STARLINK-3095,PAYLOAD,2022-02-22 14:00:01,14.9835063,0.0003712,69.9994,56.2416,290.6769,254.1512,-0.0031558,-0.00037569,0.0,0 STARLINK-3095,1 49160U 21082AG  22053.58334491 -.00037569  00000-0 -31558-2 0  9998,2 49160  69.9994  56.2416 0003712 290.6769 254.1512 14.98350630 25954,6950.129,96.106,574.5740000000002,569.414,0.0
49160.0,STARLINK-3095,PAYLOAD,2022-02-22 22:00:00,14.98310181,0.0003649,69.9997,55.4013,285.8395,256.4839,0.0044446999999999,0.0005332,0.0,0 STARLINK-3095,1 49160U 21082AG  22053.91667824  .00053320  00000-0  44447-2 0  9996,2 49160  69.9997  55.4013 0003649 285.8395 256.4839 14.98310181  3579,6950.254,96.108,574.655,569.5830000000002,0.0
49160.0,STARLINK-3095,PAYLOAD,2022-02-23 06:00:00,14.98337846,0.000374,69.9998,54.5608,289.2456,250.5672,-0.00082519,-9.928e-05,0.0,0 STARLINK-3095,1 49160U 21082AG  22054.25001157 -.00009928  00000-0 -82519-3 0  9995,2 49160  69.9998  54.5608 0003740 289.2456 250.5672 14.98337846 26053,6950.169,96.106,574.633,569.434,0.0
49160.0,STARLINK-3095,PAYLOAD,2022-02-23 14:00:01,14.98359799,0.0003704,69.9996,53.7203,290.9555,246.34,-0.0035116999999999,-0.0004178,0.0,0 STARLINK-3095,1 49160U 21082AG  22054.58334491 -.00041780  00000-0 -35117-2 0  9994,2 49160  69.9996  53.7203 0003704 290.9555 246.3400 14.98359799  3588,6950.101,96.105,574.54,569.391,0.0
49160.0,STARLINK-3095,PAYLOAD,2022-02-23 22:00:00,14.98317908,0.0003634,69.9997,52.8799,286.3205,248.4752,0.0039532,0.00047383,0.0,0 STARLINK-3095,1 49160U 21082AG  22054.91667824  .00047383  00000-0  39532-2 0  9998,2 49160  69.9997  52.8799 0003634 286.3205 248.4752 14.98317908  3581,6950.23,96.108,574.621,569.57,0.0
49160.0,STARLINK-3095,PAYLOAD,2022-02-24 06:00:00,14.98340221,0.0003736,69.9998,52.0394,290.1795,242.1152,-0.00036181,-4.409e-05,0.0,0 STARLINK-3095,1 49160U 21082AG  22055.25001157 -.00004409  00000-0 -36181-3 0  9999,2 49160  69.9998  52.0394 0003736 290.1795 242.1152 14.98340221 26208,6950.161,96.106,574.623,569.43,0.0
49160.0,STARLINK-3095,PAYLOAD,2022-02-24 14:00:01,14.9836713,0.0003664,69.9994,51.1989,291.6752,238.1091,-0.003882,-0.00046156,0.0,0 STARLINK-3095,1 49160U 21082AG  22055.58334491 -.00046156  00000-0 -38820-2 0  9991,2 49160  69.9994  51.1989 0003664 291.6752 238.1091 14.98367130  3573,6950.078,96.105,574.49,569.3969999999998,0.0
49160.0,STARLINK-3095,PAYLOAD,2022-02-24 22:00:00,14.98338694,0.0003517,69.9996,50.3585,287.1804,240.1128,-0.00023139,-2.854e-05,0.0,0 STARLINK-3095,1 49160U 21082AG  22055.91667824 -.00002854  00000-0 -23139-3 0  9992,2 49160  69.9996  50.3585 0003517 287.1804 240.1128 14.98338694  3569,6950.166,96.106,574.475,569.587,0.0
49160.0,STARLINK-3095,PAYLOAD,2022-02-25 14:00:01,14.98346017,0.0003543,69.9992,48.6772,292.5075,229.7481,-0.0040807,-0.0004847,0.0,0 STARLINK-3095,1 49160U 21082AG  22056.58334491 -.00048470  00000-0 -40807-2 0  9991,2 49160  69.9992  48.6772 0003543 292.5075 229.7481 14.98346017 26403,6950.143,96.106,574.471,569.5459999999998,0.0
49160.0,STARLINK-3095,PAYLOAD,2022-02-25 22:00:00,14.98308391,0.0003441,69.9994,47.8367,287.394,232.3405,0.0033704,0.00040333,0.0,0 STARLINK-3095,1 49160U 21082AG  22056.91667824  .00040333  00000-0  33704-2 0  9993,2 49160  69.9994  47.8367 0003441 287.3940 232.3405 14.98308391  3578,6950.26,96.108,574.516,569.7330000000002,0.0
49160.0,STARLINK-3095,PAYLOAD,2022-02-26 06:00:00,14.98322624,0.0003582,69.9995,46.996,291.4197,225.7963,0.00023978,2.769e-05,0.0,0 STARLINK-3095,1 49160U 21082AG  22057.25001157  .00002769  00000-0  23978-3 0  9996,2 49160  69.9995  46.9960 0003582 291.4197 225.7963 14.98322624 26502,6950.215999999999,96.107,574.57,569.591,0.0
49160.0,STARLINK-3095,PAYLOAD,2022-02-26 14:00:01,14.98351452,0.0003558,69.999,46.1553,291.81,222.876,-0.0041633,-0.0004945,0.0,0 STARLINK-3095,1 49160U 21082AG  22057.58334491 -.00049450  00000-0 -41633-2 0  9999,2 49160  69.9990  46.1553 0003558 291.8100 222.8760 14.98351452  3585,6950.127,96.106,574.464,569.519,0.0
49160.0,STARLINK-3095,PAYLOAD,2022-02-26 22:00:00,14.98290512,0.0003567,69.9996,45.3197,288.9662,223.2107,0.0010895,0.00012918,0.0,0 STARLINK-3095,1 49160U 21082AG  22057.91667824  .00012918  00000-0  10895-2 0  9998,2 49160  69.9996  45.3197 0003567 288.9662 223.2107 14.98290512  3585,6950.315,96.11,574.659,569.701,0.0
49160.0,STARLINK-3095,PAYLOAD,2022-02-27 14:00:01,14.98356121,0.0003615,69.999,43.6332,290.9290000000001,216.209,-0.0041892,-0.00049761,0.0,0 STARLINK-3095,1 49160U 21082AG  22058.58334491 -.00049761  00000-0 -41892-2 0  9992,2 49160  69.9990  43.6332 0003615 290.9290 216.2090 14.98356121 26706,6950.111999999999,96.105,574.49,569.465,0.0
49160.0,STARLINK-3095,PAYLOAD,2022-02-27 22:00:00,14.98326795,0.0003535,69.9994,42.7926,286.1966,218.4341,0.0027061,0.00032343,0.0,0 STARLINK-3095,1 49160U 21082AG  22058.91667824  .00032343  00000-0  27061-2 0  9996,2 49160  69.9994  42.7926 0003535 286.1966 218.4341 14.98326795  3585,6950.203,96.107,574.525,569.611,0.0
49160.0,STARLINK-3095,PAYLOAD,2022-02-28 14:00:01,14.98363591,0.0003631,69.9992,41.1112,290.6753,208.945,-0.0041106,-0.00048845,0.0,0 STARLINK-3095,1 49160U 21082AG  22059.58334491 -.00048845  00000-0 -41106-2 0  9993,2 49160  69.9992  41.1112 0003631 290.6753 208.9450 14.98363591 26859,6950.089,96.105,574.4780000000002,569.43,0.0
49160.0,STARLINK-3095,PAYLOAD,2022-02-28 22:00:00,14.9835124,0.0003511,69.9996,40.2706,286.6643,210.4582,-0.001732,-0.0002071,0.0,0 STARLINK-3095,1 49160U 21082AG  22059.91667824 -.00020710  00000-0 -17320-2 0  9991,2 49160  69.9996  40.2706 0003511 286.6643 210.4582 14.98351240  3578,6950.127,96.106,574.432,569.552,0.0
49160.0,STARLINK-3095,PAYLOAD,2022-03-01 06:00:00,14.98312128,0.0003575,69.9996,39.4301,291.7199,202.911,0.0011453,0.00013593,0.0,0 STARLINK-3095,1 49160U 21082AG  22060.25001157  .00013593  00000-0  11453-2 0  9991,2 49160  69.9996  39.4301 0003575 291.7199 202.9110 14.98312128 26954,6950.248000000001,96.108,574.5980000000002,569.628,0.0
49160.0,STARLINK-3095,PAYLOAD,2022-03-01 14:00:01,14.98344794,0.0003503999999999,69.9995,38.5894,291.5652,200.5292,-0.0040034,-0.00047559,0.0,0 STARLINK-3095,1 49160U 21082AG  22060.58334491 -.00047559  00000-0 -40034-2 0  9995,2 49160  69.9995  38.5894 0003504 291.5652 200.5292 14.98344794  3576,6950.147,96.106,574.447,569.577,0.0
49160.0,STARLINK-3095,PAYLOAD,2022-03-01 22:00:01,14.98323364,0.0003429,69.9999,37.7489,287.5576,202.0726,0.0017058,0.00020316,0.0,0 STARLINK-3095,1 49160U 21082AG  22060.91668981  .00020316  00000-0  17058-2 0  9996,2 49160  69.9999  37.7489 0003429 287.5576 202.0726 14.98323364  3587,6950.2130000000025,96.107,574.462,569.695,0.0
49160.0,STARLINK-3095,PAYLOAD,2022-03-02 14:00:01,14.98351261,0.000346,69.9998,36.0679,292.2063,192.3265,-0.0038952,-0.00046292,0.0,0 STARLINK-3095,1 49160U 21082AG  22061.58334491 -.00046292  00000-0 -38952-2 0  9995,2 49160  69.9998  36.0679 0003460 292.2063 192.3265 14.98351261 27153,6950.127,96.106,574.3969999999998,569.587,0.0
49160.0,STARLINK-3095,PAYLOAD,2022-03-02 22:00:00,14.98344399,0.0003413,70.0002,35.2274,288.2003,193.815,-0.0012295,-0.00014738,0.0,0 STARLINK-3095,1 49160U 21082AG  22061.91667824 -.00014738  00000-0 -12295-2 0  9993,2 49160  70.0002  35.2274 0003413 288.2003 193.8150 14.98344399  3585,6950.148,96.106,574.385,569.641,0.0
49160.0,STARLINK-3095,PAYLOAD,2022-03-03 06:00:00,14.98304067,0.0003615,70.0003,34.3868,292.8423,186.6755,0.0010615,0.00012587,0.0,0 STARLINK-3095,1 49160U 21082AG  22062.25001157  .00012587  00000-0  10615-2 0  9994,2 49160  70.0003  34.3868 0003615 292.8423 186.6755 14.98304067 27255,6950.273,96.109,574.651,569.626,0.0
49160.0,STARLINK-3095,PAYLOAD,2022-03-03 14:00:01,14.98330209,0.0003539,70.0001,33.5463,291.6411,185.3312,-0.0036874,-0.00043819,0.0,0 STARLINK-3095,1 49160U 21082AG  22062.58334491 -.00043819  00000-0 -36874-2 0  9999,2 49160  70.0001  33.5463 0003539 291.6411 185.3312 14.98330209  3586,6950.191999999999,96.107,574.5169999999998,569.5980000000002,0.0
